[{"OBJECT_NAME":"ONEWEB-0018","OBJECT_ID":"2020-020L","EPOCH":"2026-04-30T05:27:13.188672","MEAN_MOTION":13.11415806,"ECCENTRICITY":0.000217,"INCLINATION":87.8923,"RA_OF_ASC_NODE":30.6022,"ARG_OF_PERICENTER":74.5507,"MEAN_ANOMALY":285.586,"EPHEMERIS_TYPE":0,"CLASSIFICATION_TYPE":"U","NORAD_CAT_ID":45434,"ELEMENT_SET_NO":999,"REV_AT_EPOCH":29634,"BSTAR":-0.0007948800000000001,"MEAN_MOTION_DOT":-2.69e-06,"MEAN_MOTION_DDOT":0.0},{"OBJECT_NAME":"ONEWEB-0083","OBJECT_ID":"2020-020M","EPOCH":"2026-04-30T05:13:07.526208","MEAN_MOTION":13.11532974,"ECCENTRICITY":0.000185,"INCLINATION":87.8931,"RA_OF_ASC_NODE":30.5947,"ARG_OF_PERICENTER":76.4743,"MEAN_ANOMALY":283.6591,"EPHEMERIS_TYPE":0,"CLASSIFICATION_TYPE":"U","NORAD_CAT_ID":45435,"ELEMENT_SET_NO":999,"REV_AT_EPOCH":29638,"BSTAR":0.00038181,"MEAN_MOTION_DOT":1.48e-06,"MEAN_MOTION_DDOT":0.0},{"OBJECT_NAME":"ONEWEB-0095","OBJECT_ID":"2020-020N","EPOCH":"2026-04-30T05:00:34.383456","MEAN_MOTION":13.1141796,"ECCENTRICITY":0.0001175,"INCLINATION":87.8933,"RA_OF_ASC_NODE":30.6047,"ARG_OF_PERICENTER":95.0882,"MEAN_ANOMALY":265.038,"EPHEMERIS_TYPE":0,"CLASSIFICATION_TYPE":"U","NORAD_CAT_ID":45436,"ELEMENT_SET_NO":999,"REV_AT_EPOCH":29638,"BSTAR":0.0011118,"MEAN_MOTION_DOT":4.07e-06,"MEAN_MOTION_DDOT":0.0},{"OBJECT_NAME":"ONEWEB-0092","OBJECT_ID":"2020-020P","EPOCH":"2026-04-30T00:39:48.737952","MEAN_MOTION":13.11694645,"ECCENTRICITY":0.0002507,"INCLINATION":87.8932,"RA_OF_ASC_NODE":30.6405,"ARG_OF_PERICENTER":288.4086,"MEAN_ANOMALY":71.677,"EPHEMERIS_TYPE":0,"CLASSIFICATION_TYPE":"U","NORAD_CAT_ID":45437,"ELEMENT_SET_NO":999,"REV_AT_EPOCH":29647,"BSTAR":0.091394,"MEAN_MOTION_DOT":0.0003265,"MEAN_MOTION_DDOT":0.0},{"OBJECT_NAME":"ONEWEB-0085","OBJECT_ID":"2020-020Q","EPOCH":"2026-04-30T05:12:29.148192","MEAN_MOTION":13.11444147,"ECCENTRICITY":0.0001999,"INCLINATION":87.8924,"RA_OF_ASC_NODE":30.6055,"ARG_OF_PERICENTER":78.0442,"MEAN_ANOMALY":282.091,"EPHEMERIS_TYPE":0,"CLASSIFICATION_TYPE":"U","NORAD_CAT_ID":45438,"ELEMENT_SET_NO":999,"REV_AT_EPOCH":29638,"BSTAR":0.0067689000000000004,"MEAN_MOTION_DOT":2.413e-05,"MEAN_MOTION_DDOT":0.0},{"OBJECT_NAME":"ONEWEB-0096","OBJECT_ID":"2020-020R","EPOCH":"2026-04-30T05:15:00.336960","MEAN_MOTION":13.11416583,"ECCENTRICITY":0.0001872,"INCLINATION":87.8933,"RA_OF_ASC_NODE":30.5965,"ARG_OF_PERICENTER":80.7197,"MEAN_ANOMALY":279.4143,"EPHEMERIS_TYPE":0,"CLASSIFICATION_TYPE":"U","NORAD_CAT_ID":45439,"ELEMENT_SET_NO":999,"REV_AT_EPOCH":29637,"BSTAR":0.00025371,"MEAN_MOTION_DOT":1.03e-06,"MEAN_MOTION_DDOT":0.0},{"OBJECT_NAME":"ONEWEB-0037","OBJECT_ID":"2020-020S","EPOCH":"2026-04-30T06:28:56.652096","MEAN_MOTION":13.11909692,"ECCENTRICITY":0.0001735,"INCLINATION":87.8944,"RA_OF_ASC_NODE":30.5634,"ARG_OF_PERICENTER":80.6023,"MEAN_ANOMALY":279.5301,"EPHEMERIS_TYPE":0,"CLASSIFICATION_TYPE":"U","NORAD_CAT_ID":45440,"ELEMENT_SET_NO":999,"REV_AT_EPOCH":29641,"BSTAR":0.0013120999999999999,"MEAN_MOTION_DOT":4.81e-06,"MEAN_MOTION_DDOT":0.0},{"OBJECT_NAME":"ONEWEB-0042","OBJECT_ID":"2020-020T","EPOCH":"2026-04-30T03:10:18.296544","MEAN_MOTION":13.11416511,"ECCENTRICITY":0.0001897,"INCLINATION":87.8933,"RA_OF_ASC_NODE":30.6105,"ARG_OF_PERICENTER":81.6699,"MEAN_ANOMALY":278.4644,"EPHEMERIS_TYPE":0,"CLASSIFICATION_TYPE":"U","NORAD_CAT_ID":45441,"ELEMENT_SET_NO":999,"REV_AT_EPOCH":29636,"BSTAR":0.0012261,"MEAN_MOTION_DOT":4.47e-06,"MEAN_MOTION_DDOT":0.0},{"OBJECT_NAME":"ONEWEB-0098","OBJECT_ID":"2020-020U","EPOCH":"2026-04-30T04:54:15.913440","MEAN_MOTION":13.11415494,"ECCENTRICITY":0.0001802,"INCLINATION":87.8929,"RA_OF_ASC_NODE":30.6066,"ARG_OF_PERICENTER":75.8688,"MEAN_ANOMALY":284.264,"EPHEMERIS_TYPE":0,"CLASSIFICATION_TYPE":"U","NORAD_CAT_ID":45442,"ELEMENT_SET_NO":999,"REV_AT_EPOCH":29635,"BSTAR":0.0014726000000000001,"MEAN_MOTION_DOT":5.35e-06,"MEAN_MOTION_DDOT":0.0},{"OBJECT_NAME":"ONEWEB-0055","OBJECT_ID":"2020-020V","EPOCH":"2026-04-30T06:17:06.390528","MEAN_MOTION":13.11920568,"ECCENTRICITY":0.0001893,"INCLINATION":87.8933,"RA_OF_ASC_NODE":30.5945,"ARG_OF_PERICENTER":72.3452,"MEAN_ANOMALY":287.7883,"EPHEMERIS_TYPE":0,"CLASSIFICATION_TYPE":"U","NORAD_CAT_ID":45443,"ELEMENT_SET_NO":999,"REV_AT_EPOCH":29633,"BSTAR":0.00063887,"MEAN_MOTION_DOT":2.41e-06,"MEAN_MOTION_DDOT":0.0},{"OBJECT_NAME":"ONEWEB-0093","OBJECT_ID":"2020-020W","EPOCH":"2026-04-30T05:44:29.993856","MEAN_MOTION":13.11418601,"ECCENTRICITY":0.0002114,"INCLINATION":87.8934,"RA_OF_ASC_NODE":30.5897,"ARG_OF_PERICENTER":87.4321,"MEAN_ANOMALY":272.7049,"EPHEMERIS_TYPE":0,"CLASSIFICATION_TYPE":"U","NORAD_CAT_ID":45444,"ELEMENT_SET_NO":999,"REV_AT_EPOCH":29639,"BSTAR":-0.0013691999999999999,"MEAN_MOTION_DOT":-4.73e-06,"MEAN_MOTION_DDOT":0.0},{"OBJECT_NAME":"ONEWEB-0029","OBJECT_ID":"2020-020X","EPOCH":"2026-04-30T06:07:36.725952","MEAN_MOTION":13.11356299,"ECCENTRICITY":0.0002891,"INCLINATION":87.8922,"RA_OF_ASC_NODE":30.596,"ARG_OF_PERICENTER":68.5747,"MEAN_ANOMALY":291.5689,"EPHEMERIS_TYPE":0,"CLASSIFICATION_TYPE":"U","NORAD_CAT_ID":45445,"ELEMENT_SET_NO":999,"REV_AT_EPOCH":29637,"BSTAR":-0.022964000000000002,"MEAN_MOTION_DOT":-8.112e-05,"MEAN_MOTION_DDOT":0.0},{"OBJECT_NAME":"ONEWEB-0068","OBJECT_ID":"2020-020Y","EPOCH":"2026-04-30T05:44:06.615744","MEAN_MOTION":13.11417642,"ECCENTRICITY":0.0002009,"INCLINATION":87.8935,"RA_OF_ASC_NODE":30.5931,"ARG_OF_PERICENTER":80.6441,"MEAN_ANOMALY":279.4914,"EPHEMERIS_TYPE":0,"CLASSIFICATION_TYPE":"U","NORAD_CAT_ID":45446,"ELEMENT_SET_NO":999,"REV_AT_EPOCH":29631,"BSTAR":-0.0014171000000000001,"MEAN_MOTION_DOT":-4.9e-06,"MEAN_MOTION_DDOT":0.0},{"OBJECT_NAME":"ONEWEB-0046","OBJECT_ID":"2020-020Z","EPOCH":"2026-04-30T05:32:05.758080","MEAN_MOTION":13.11416701,"ECCENTRICITY":0.000186,"INCLINATION":87.8935,"RA_OF_ASC_NODE":30.6021,"ARG_OF_PERICENTER":86.5873,"MEAN_ANOMALY":273.5468,"EPHEMERIS_TYPE":0,"CLASSIFICATION_TYPE":"U","NORAD_CAT_ID":45447,"ELEMENT_SET_NO":999,"REV_AT_EPOCH":29632,"BSTAR":-0.0011517,"MEAN_MOTION_DOT":-3.95e-06,"MEAN_MOTION_DDOT":0.0},{"OBJECT_NAME":"ONEWEB-0063","OBJECT_ID":"2020-020AA","EPOCH":"2026-04-30T06:13:36.982848","MEAN_MOTION":13.11419495,"ECCENTRICITY":0.0001696,"INCLINATION":87.8937,"RA_OF_ASC_NODE":30.594,"ARG_OF_PERICENTER":85.4056,"MEAN_ANOMALY":274.7266,"EPHEMERIS_TYPE":0,"CLASSIFICATION_TYPE":"U","NORAD_CAT_ID":45448,"ELEMENT_SET_NO":999,"REV_AT_EPOCH":29641,"BSTAR":0.00032406000000000004,"MEAN_MOTION_DOT":1.28e-06,"MEAN_MOTION_DDOT":0.0},{"OBJECT_NAME":"ONEWEB-0019","OBJECT_ID":"2020-020AB","EPOCH":"2026-04-30T05:19:41.641536","MEAN_MOTION":13.11415918,"ECCENTRICITY":0.0001777,"INCLINATION":87.8926,"RA_OF_ASC_NODE":30.5911,"ARG_OF_PERICENTER":73.6259,"MEAN_ANOMALY":286.5065,"EPHEMERIS_TYPE":0,"CLASSIFICATION_TYPE":"U","NORAD_CAT_ID":45449,"ELEMENT_SET_NO":999,"REV_AT_EPOCH":29625,"BSTAR":-0.00022858,"MEAN_MOTION_DOT":-6.8e-07,"MEAN_MOTION_DDOT":0.0}]