ONEWEB-0018             
1 45434U 20020L   26120.22723598 -.00000269  00000+0 -79488-3 0  9990
2 45434  87.8923  30.6022 0002170  74.5507 285.5860 13.11415806296348
ONEWEB-0083             
1 45435U 20020M   26120.21744822  .00000148  00000+0  38181-3 0  9992
2 45435  87.8931  30.5947 0001850  76.4743 283.6591 13.11532974296380
ONEWEB-0095             
1 45436U 20020N   26120.20873129  .00000407  00000+0  11118-2 0  9993
2 45436  87.8933  30.6047 0001175  95.0882 265.0380 13.11417960296383
ONEWEB-0092             
1 45437U 20020P   26120.02764743  .00032650  00000+0  91394-1 0  9993
2 45437  87.8932  30.6405 0002507 288.4086  71.6770 13.11694645296476
ONEWEB-0085             
1 45438U 20020Q   26120.21700403  .00002413  00000+0  67689-2 0  9993
2 45438  87.8924  30.6055 0001999  78.0442 282.0910 13.11444147296386
ONEWEB-0096             
1 45439U 20020R   26120.21875390  .00000103  00000+0  25371-3 0  9999
2 45439  87.8933  30.5965 0001872  80.7197 279.4143 13.11416583296373
ONEWEB-0037             
1 45440U 20020S   26120.27010014  .00000481  00000+0  13121-2 0  9999
2 45440  87.8944  30.5634 0001735  80.6023 279.5301 13.11909692296415
ONEWEB-0042             
1 45441U 20020T   26120.13215621  .00000447  00000+0  12261-2 0  9992
2 45441  87.8933  30.6105 0001897  81.6699 278.4644 13.11416511296362
ONEWEB-0098             
1 45442U 20020U   26120.20435085  .00000535  00000+0  14726-2 0  9995
2 45442  87.8929  30.6066 0001802  75.8688 284.2640 13.11415494296352
ONEWEB-0055             
1 45443U 20020V   26120.26187952  .00000241  00000+0  63887-3 0  9996
2 45443  87.8933  30.5945 0001893  72.3452 287.7883 13.11920568296332
ONEWEB-0093             
1 45444U 20020W   26120.23923604 -.00000473  00000+0 -13692-2 0  9993
2 45444  87.8934  30.5897 0002114  87.4321 272.7049 13.11418601296393
ONEWEB-0029             
1 45445U 20020X   26120.25528618 -.00008112  00000+0 -22964-1 0  9991
2 45445  87.8922  30.5960 0002891  68.5747 291.5689 13.11356299296377
ONEWEB-0068             
1 45446U 20020Y   26120.23896546 -.00000490  00000+0 -14171-2 0  9991
2 45446  87.8935  30.5931 0002009  80.6441 279.4914 13.11417642296317
ONEWEB-0046             
1 45447U 20020Z   26120.23062220 -.00000395  00000+0 -11517-2 0  9991
2 45447  87.8935  30.6021 0001860  86.5873 273.5468 13.11416701296322
ONEWEB-0063             
1 45448U 20020AA  26120.25945582  .00000128  00000+0  32406-3 0  9998
2 45448  87.8937  30.5940 0001696  85.4056 274.7266 13.11419495296414
ONEWEB-0019             
1 45449U 20020AB  26120.22200974 -.00000068  00000+0 -22858-3 0  9990
2 45449  87.8926  30.5911 0001777  73.6259 286.5065 13.11415918296251
